NORAD_CAT_ID,OBJECT_NAME,OBJECT_TYPE,EPOCH,MEAN_MOTION,ECCENTRICITY,INCLINATION,RA_OF_ASC_NODE,ARG_OF_PERICENTER,MEAN_ANOMALY,BSTAR,MEAN_MOTION_DOT,MEAN_MOTION_DDOT,TLE_LINE0,TLE_LINE1,TLE_LINE2,SEMIMAJOR_AXIS,PERIOD,APOGEE,PERIGEE,DECAYED
55962.0,STARLINK-5906,PAYLOAD,2023-06-24 16:09:06,15.69911955,0.000311,69.9987,262.9766,262.3366,97.7477,-1.4902e-05,-2.003e-05,0.0,0 STARLINK-5906,1 55962U 23037BA  23175.67299033 -.00002003  00000-0 -14902-4 0  9996,2 55962  69.9987 262.9766 0003110 262.3366  97.7477 15.69911955 16052,6737.286,91.725,361.246,357.056,0.0
55962.0,STARLINK-5906,PAYLOAD,2023-06-24 23:47:51,15.69916642,0.000382,69.9969,262.08,277.8035,82.2727,8.2985e-06,7.85e-06,0.0,0 STARLINK-5906,1 55962U 23037BA  23175.99156729  .00000785  00000-0  82985-5 0  9995,2 55962  69.9969 262.0800 0003820 277.8035  82.2727 15.69916642 16105,6737.272,91.725,361.711,356.564,0.0
55962.0,STARLINK-5906,PAYLOAD,2023-06-25 08:58:21,15.69924755,0.0003624,69.9972,261.0047,270.829,89.2491,1.1293e-05,1.145e-05,0.0,0 STARLINK-5906,1 55962U 23037BA  23176.37386257  .00001145  00000-0  11293-4 0  9993,2 55962  69.9972 261.0047 0003624 270.8290  89.2491 15.69924755 16164,6737.249,91.724,361.556,356.673,0.0
55962.0,STARLINK-5906,PAYLOAD,2023-06-25 15:05:22,15.69919656,0.0003464,69.9975,260.2895,269.3753,90.7046,4.8803e-06,3.74e-06,0.0,0 STARLINK-5906,1 55962U 23037BA  23176.62873461  .00000374  00000-0  48803-5 0  9990,2 55962  69.9975 260.2895 0003464 269.3753  90.7046 15.69919656 16200,6737.264,91.724,361.463,356.795,0.0
55962.0,STARLINK-5906,PAYLOAD,2023-06-26 15:33:24,15.69925243,0.0003296,69.9989,257.4236,267.5568,92.525,7.4866e-06,6.88e-06,0.0,0 STARLINK-5906,1 55962U 23037BA  23177.64819891  .00000688  00000-0  74866-5 0  9996,2 55962  69.9989 257.4236 0003296 267.5568  92.5250 15.69925243 16362,6737.248,91.724,361.333,356.892,0.0
55962.0,STARLINK-5906,PAYLOAD,2023-06-28 04:15:27,15.69918519,0.0002906,69.9997,253.1246,264.9394,95.147,-1.4909e-06,-3.92e-06,0.0,0 STARLINK-5906,1 55962U 23037BA  23179.17740616 -.00000392  00000-0 -14909-5 0  9990,2 55962  69.9997 253.1246 0002906 264.9394  95.1470 15.69918519 16608,6737.267,91.725,361.09,357.174,0.0
55962.0,STARLINK-5906,PAYLOAD,2023-06-29 07:47:00,15.6992188,0.000311,69.9969,249.899,262.4352,97.649,2.7323e-06,1.16e-06,0.0,0 STARLINK-5906,1 55962U 23037BA  23180.32430784  .00000116  00000-0  27323-5 0  9997,2 55962  69.9969 249.8990 0003110 262.4352  97.6490 15.69921880 16783,6737.257,91.724,361.218,357.027,0.0
55962.0,STARLINK-5906,PAYLOAD,2023-06-29 18:29:15,15.69934752,0.0003149,69.9975,248.6457,264.9892,95.0944,1.5571e-05,1.661e-05,0.0,0 STARLINK-5906,1 55962U 23037BA  23180.77031427  .00001661  00000-0  15571-4 0  9994,2 55962  69.9975 248.6457 0003149 264.9892  95.0944 15.69934752 16859,6737.221,91.724,361.207,356.964,0.0
55962.0,STARLINK-5906,PAYLOAD,2023-07-01 10:14:48,15.69925215,0.0003503,69.9977,243.9883,263.2057,96.874,2.0722e-05,2.28e-05,0.0,0 STARLINK-5906,1 55962U 23037BA  23182.42695367  .00002280  00000-0  20722-4 0  9999,2 55962  69.9977 243.9883 0003503 263.2057  96.8740 15.69925215 17118,6737.248,91.724,361.473,356.753,0.0
55962.0,STARLINK-5906,PAYLOAD,2023-07-02 10:42:50,15.6992571,0.0003561,69.9974,241.1218,264.2739,95.8051,1.8226e-05,1.979e-05,0.0,0 STARLINK-5906,1 55962U 23037BA  23183.44642109  .00001979  00000-0  18226-4 0  9998,2 55962  69.9974 241.1218 0003561 264.2739  95.8051 15.69925710 17270,6737.247,91.724,361.511,356.712,0.0
55962.0,STARLINK-5906,PAYLOAD,2023-07-02 13:46:21,15.69912758,0.0003364,69.9971,240.7619,266.8471,93.234,1.0011e-05,9.91e-06,0.0,0 STARLINK-5906,1 55962U 23037BA  23183.57386455  .00000991  00000-0  10011-4 0  9998,2 55962  69.9971 240.7619 0003364 266.8471  93.2340 15.69912758 17292,6737.284,91.725,361.415,356.882,0.0
55962.0,STARLINK-5906,PAYLOAD,2023-07-03 11:10:52,15.69930348,0.0003224,69.9978,238.2561,255.9689,104.1148,6.709e-06,5.94e-06,0.0,0 STARLINK-5906,1 55962U 23037BA  23184.46588832  .00000594  00000-0  67090-5 0  9999,2 55962  69.9978 238.2561 0003224 255.9689 104.1148 15.69930348 17431,6737.233,91.724,361.27,356.926,0.0
55962.0,STARLINK-5906,PAYLOAD,2023-07-04 11:38:54,15.69927456,0.0003091,69.9985,235.3897,263.9898,96.0946,1.6655e-05,1.791e-05,0.0,0 STARLINK-5906,1 55962U 23037BA  23185.48535789  .00001791  00000-0  16655-4 0  9995,2 55962  69.9985 235.3897 0003091 263.9898  96.0946 15.69927456 17590,6737.242,91.724,361.189,357.024,0.0
55962.0,STARLINK-5906,PAYLOAD,2023-07-04 20:49:25,15.69943907,0.000349,69.9979,234.3143,267.8575,92.2221,-2.2799e-05,-2.956e-05,0.0,0 STARLINK-5906,1 55962U 23037BA  23185.86765144 -.00002956  00000-0 -22799-4 0  9999,2 55962  69.9979 234.3143 0003490 267.8575  92.2221 15.69943907 17654,6737.194,91.723,361.411,356.708,0.0
55962.0,STARLINK-5906,PAYLOAD,2023-07-05 05:59:56,15.69924493,0.0003505,69.999,233.2407,267.145,92.9345,1.1129e-05,1.126e-05,0.0,0 STARLINK-5906,1 55962U 23037BA  23186.24996097  .00001126  00000-0  11129-4 0  9996,2 55962  69.9990 233.2407 0003505 267.1450  92.9345 15.69924493 17710,6737.25,91.724,361.476,356.754,0.0
55962.0,STARLINK-5906,PAYLOAD,2023-07-06 12:34:59,15.69923461,0.000315,69.9986,229.6583,265.9868,94.0968,1.3359e-05,1.394e-05,0.0,0 STARLINK-5906,1 55962U 23037BA  23187.52429647  .00001394  00000-0  13359-4 0  9994,2 55962  69.9986 229.6583 0003150 265.9868  94.0968 15.69923461 17914,6737.253,91.724,361.24,356.996,0.0
55962.0,STARLINK-5906,PAYLOAD,2023-07-07 13:03:01,15.69927841,0.0003284,69.9986,226.7929,266.7527,93.3292,8.5769e-06,8.19e-06,0.0,0 STARLINK-5906,1 55962U 23037BA  23188.54376160  .00000819  00000-0  85769-5 0  9994,2 55962  69.9986 226.7929 0003284 266.7527  93.3292 15.69927841 18071,6737.24,91.724,361.318,356.893,0.0
55962.0,STARLINK-5906,PAYLOAD,2023-07-08 15:02:48,15.69913192,0.0003768,69.9971,223.7455,269.9465,90.1299,3.5723e-06,2.16e-06,0.0,0 STARLINK-5906,1 55962U 23037BA  23189.62695527  .00000216  00000-0  35723-5 0  9991,2 55962  69.9971 223.7455 0003768 269.9465  90.1299 15.69913192 18244,6737.282,91.725,361.686,356.609,0.0
55962.0,STARLINK-5906,PAYLOAD,2023-07-09 10:55:34,15.69927354,0.0003233,69.9975,221.416,261.0629,99.0201,1.3587e-05,1.421e-05,0.0,0 STARLINK-5906,1 55962U 23037BA  23190.45526405  .00001421  00000-0  13587-4 0  9994,2 55962  69.9975 221.4160 0003233 261.0629  99.0201 15.69927354 18378,6737.242,91.724,361.285,356.929,0.0
55962.0,STARLINK-5906,PAYLOAD,2023-07-10 11:23:36,15.69924613,0.0003514,69.9994,218.5499,265.8871,94.1923,1.3298e-05,1.386e-05,0.0,0 STARLINK-5906,1 55962U 23037BA  23191.47473276  .00001386  00000-0  13298-4 0  9993,2 55962  69.9994 218.5499 0003514 265.8871  94.1923 15.69924613 18534,6737.25,91.724,361.482,356.747,0.0
55962.0,STARLINK-5906,PAYLOAD,2023-07-11 11:51:39,15.69917685,0.0003288,69.9995,215.6838,272.4889,87.593,-9.6842e-06,-1.377e-05,0.0,0 STARLINK-5906,1 55962U 23037BA  23192.49420359 -.00001377  00000-0 -96842-5 0  9999,2 55962  69.9995 215.6838 0003288 272.4889  87.5930 15.69917685 18693,6737.27,91.725,361.35,356.919,0.0
55962.0,STARLINK-5906,PAYLOAD,2023-07-12 07:44:25,15.69926264,0.0003712,69.9996,213.3554,267.8283,92.2488,8.7419e-06,8.38e-06,0.0,0 STARLINK-5906,1 55962U 23037BA  23193.32251543  .00000838  00000-0  87419-5 0  9998,2 55962  69.9996 213.3554 0003712 267.8283  92.2488 15.69926264 18821,6737.245,91.724,361.611,356.609,0.0
55962.0,STARLINK-5906,PAYLOAD,2023-07-13 12:47:42,15.69925219,0.0003564,69.9986,209.9511,271.8025,88.2762,6.4585e-06,5.64e-06,0.0,0 STARLINK-5906,1 55962U 23037BA  23194.53313531  .00000564  00000-0  64585-5 0  9993,2 55962  69.9986 209.9511 0003564 271.8025  88.2762 15.69925219 19019,6737.248,91.724,361.514,356.712,0.0
55962.0,STARLINK-5906,PAYLOAD,2023-07-14 10:12:15,15.69907341,0.0003048,70.0004,207.4454,270.6694,89.4152,-1.0185e-05,-1.436e-05,0.0,0 STARLINK-5906,1 55962U 23037BA  23195.42517960 -.00001436  00000-0 -10185-4 0  9991,2 55962  70.0004 207.4454 0003048 270.6694  89.4152 15.69907341 19155,6737.299,91.725,361.218,357.111,0.0
55962.0,STARLINK-5906,PAYLOAD,2023-07-14 17:51:00,15.69917397,0.0003497,69.9994,206.5495,270.0924,89.9871,6.1828e-06,5.3e-06,0.0,0 STARLINK-5906,1 55962U 23037BA  23195.74375913  .00000530  00000-0  61828-5 0  9999,2 55962  69.9994 206.5495 0003497 270.0924  89.9871 15.69917397 19204,6737.27,91.725,361.491,356.779,0.0
55962.0,STARLINK-5906,PAYLOAD,2023-07-16 01:57:48,15.69924175,0.0003678,69.9985,202.7863,275.2742,84.8034,5.3586e-06,4.31e-06,0.0,0 STARLINK-5906,1 55962U 23037BA  23197.08180596  .00000431  00000-0  53586-5 0  9991,2 55962  69.9985 202.7863 0003678 275.2742  84.8034 15.69924175 19417,6737.251,91.724,361.594,356.638,0.0
55962.0,STARLINK-5906,PAYLOAD,2023-07-16 09:36:33,15.69932952,0.0003545,69.9995,201.8914,278.8363,81.2431,5.5347e-05,6.45e-05,0.0,0 STARLINK-5906,1 55962U 23037BA  23197.40038810  .00006450  00000-0  55347-4 0  9991,2 55962  69.9995 201.8914 0003545 278.8363  81.2431 15.69932952 19465,6737.226,91.724,361.479,356.702,0.0
55962.0,STARLINK-5906,PAYLOAD,2023-07-17 10:04:35,15.69931969,0.0003128,70.0003,199.0268,278.7087,81.3754,4.8255e-05,5.595e-05,0.0,0 STARLINK-5906,1 55962U 23037BA  23198.41985651  .00005595  00000-0  48255-4 0  9996,2 55962  70.0003 199.0268 0003128 278.7087  81.3754 15.69931969 19621,6737.229,91.724,361.201,356.986,0.0
55962.0,STARLINK-5906,PAYLOAD,2023-07-18 09:00:52,15.69924452,0.0003245,70.0,196.3397,266.6157,93.4667,1.0734e-05,1.078e-05,0.0,0 STARLINK-5906,1 55962U 23037BA  23199.37560831  .00001078  00000-0  10734-4 0  9994,2 55962  70.0000 196.3397 0003245 266.6157  93.4667 15.69924452 19777,6737.25,91.724,361.301,356.929,0.0
55962.0,STARLINK-5906,PAYLOAD,2023-07-18 12:04:22,15.69935817,0.0003727,69.9998,195.9805,260.9836,99.0938,3.6017e-05,4.122e-05,0.0,0 STARLINK-5906,1 55962U 23037BA  23199.50303601  .00004122  00000-0  36017-4 0  9994,2 55962  69.9998 195.9805 0003727 260.9836  99.0938 15.69935817 19797,6737.218,91.723,361.594,356.572,0.0
